{
    "links": {
        "self": "http://www.neowsapp.com/rest/v1/neo/3638509?api_key=iIulBulltgU6a56xZRHN4H3l9WmuAYTsLGpBGhQ2"
    },
    "id": "3638509",
    "neo_reference_id": "3638509",
    "name": "(2013 KA)",
    "designation": "2013 KA",
    "nasa_jpl_url": "http://ssd.jpl.nasa.gov/sbdb.cgi?sstr=3638509",
    "absolute_magnitude_h": 27.9,
    "estimated_diameter": {
        "kilometers": {
            "estimated_diameter_min": 0.0069912523,
            "estimated_diameter_max": 0.0156329154
        },
        "meters": {
            "estimated_diameter_min": 6.9912523225,
            "estimated_diameter_max": 15.6329154409
        },
        "miles": {
            "estimated_diameter_min": 0.0043441614,
            "estimated_diameter_max": 0.0097138403
        },
        "feet": {
            "estimated_diameter_min": 22.9371802696,
            "estimated_diameter_max": 51.289094295
        }
    },
    "is_potentially_hazardous_asteroid": false,
    "close_approach_data": [
        {
            "close_approach_date": "2013-05-17",
            "close_approach_date_full": "2013-May-17 00:00",
            "epoch_date_close_approach": 1368748800000,
            "relative_velocity": {
                "kilometers_per_second": "5.2824368548",
                "kilometers_per_hour": "19016.7726773208",
                "miles_per_hour": "11816.2830005274"
            },
            "miss_distance": {
                "astronomical": "0.0048552517",
                "lunar": "1.8886929113",
                "kilometers": "726335.312633879",
                "miles": "451323.8351063702"
            },
            "orbiting_body": "Moon"
        },
        {
            "close_approach_date": "2013-05-17",
            "close_approach_date_full": "2013-May-17 00:51",
            "epoch_date_close_approach": 1368751860000,
            "relative_velocity": {
                "kilometers_per_second": "5.2767896112",
                "kilometers_per_hour": "18996.4426001853",
                "miles_per_hour": "11803.6506812096"
            },
            "miss_distance": {
                "astronomical": "0.0048540569",
                "lunar": "1.8882281341",
                "kilometers": "726156.573098803",
                "miles": "451212.7715093614"
            },
            "orbiting_body": "Moon"
        },
        {
            "close_approach_date": "2013-05-17",
            "close_approach_date_full": "2013-May-17 12:39",
            "epoch_date_close_approach": 1368794340000,
            "relative_velocity": {
                "kilometers_per_second": "5.1812141728",
                "kilometers_per_hour": "18652.3710222165",
                "miles_per_hour": "11589.8579832212"
            },
            "miss_distance": {
                "astronomical": "0.0052834712",
                "lunar": "2.0552702968",
                "kilometers": "790396.037726344",
                "miles": "491129.3238737872"
            },
            "orbiting_body": "Earth"
        }
    ],
    "orbital_data": {
        "orbit_id": "5",
        "orbit_determination_date": "2017-04-06 08:45:47",
        "first_observation_date": "2013-05-16",
        "last_observation_date": "2013-05-17",
        "data_arc_in_days": 1,
        "observations_used": 21,
        "orbit_uncertainty": "7",
        "minimum_orbit_intersection": ".00369996",
        "jupiter_tisserand_invariant": "4.596",
        "epoch_osculation": "2459000.5",
        "eccentricity": ".2998637606909166",
        "semi_major_axis": "1.448113921064796",
        "inclination": "5.001917833389088",
        "ascending_node_longitude": "234.6254333738861",
        "orbital_period": "636.5060260917446",
        "perihelion_distance": "1.013877034785437",
        "perihelion_argument": "355.0027876185534",
        "aphelion_distance": "1.882350807344155",
        "perihelion_time": "2458972.594679769632",
        "mean_anomaly": "15.78290679291156",
        "mean_motion": ".5655877324688681",
        "equinox": "J2000",
        "orbit_class": {
            "orbit_class_type": "APO",
            "orbit_class_description": "Near-Earth asteroid orbits which cross the Earth’s orbit similar to that of 1862 Apollo",
            "orbit_class_range": "a (semi-major axis) > 1.0 AU; q (perihelion) < 1.017 AU"
        }
    },
    "is_sentry_object": false
}